{
  "norad_id": 62088,
  "name": "STARLINK-11384 [DTC]",
  "history": [
    {
      "epoch": "2026-03-28T20:35:37.222944",
      "apogee_km": 357.30746782386905,
      "perigee_km": 355.5461100105158,
      "latitude_deg": 40.75568086366285,
      "longitude_deg": 111.17469215998426,
      "semi_major_axis_km": 6734.563788917192,
      "eccentricity": 0.00013077,
      "inclination_deg": 42.9992,
      "raan_deg": 287.9099,
      "arg_perigee_deg": 266.96,
      "mean_anomaly_deg": 93.1118,
      "mean_motion_rev_day": 15.70863887
    }
  ]
}